{"type": "FeatureCollection", "features": [ {"type": "Feature", "properties": {"norad_id": 29868, "name": "FENGYUN 1C DEB", "group": "fengyun-1c-debris", "lat": 64.97326469205663, "lon": 29.43550119459554, "alt_km": 670.3388755208534, "timestamp": "2025-12-27T06:41:31.198377+00:00", "meta": {"OBJECT_NAME": "FENGYUN 1C DEB", "OBJECT_ID": "1999-025FN", "EPOCH": "2025-12-26T22:50:05.254080", "MEAN_MOTION": 14.78610443, "ECCENTRICITY": 0.01952373, "INCLINATION": 97.9482, "RA_OF_ASC_NODE": 46.5246, "ARG_OF_PERICENTER": 317.9428, "MEAN_ANOMALY": 164.5676, "EPHEMERIS_TYPE": 0, "CLASSIFICATION_TYPE": "U", "NORAD_CAT_ID": 29868, "ELEMENT_SET_NO": 999, "REV_AT_EPOCH": 505, "BSTAR": 0.00083361262, "MEAN_MOTION_DOT": 8.358e-05, "MEAN_MOTION_DDOT": 0}, "tle": {"line1": "1 29868U 99025FN  25360.95144970  .00008358  00000+0  83361-3 0  9990", "line2": "2 29868  97.9482  46.5246 0195237 317.9428 164.5676 14.78610443  5055"}}, "geometry": {"type": "Point", "coordinates": [29.43550119459554, 64.97326469205663]}}, {"type": "Feature", "properties": {"norad_id": 29869, "name": "FENGYUN 1C DEB", "group": "fengyun-1c-debris", "lat": 73.97351199337072, "lon": 144.97432709932087, "alt_km": 805.2959989629944, "timestamp": "2025-12-27T06:41:31.198387+00:00", "meta": {"OBJECT_NAME": "FENGYUN 1C DEB", "OBJECT_ID": "1999-025FP", "EPOCH": "2025-12-26T18:38:56.510016", "MEAN_MOTION": 14.36920086, "ECCENTRICITY": 0.00868493, "INCLINATION": 98.8748, "RA_OF_ASC_NODE": 291.5044, "ARG_OF_PERICENTER": 329.7433, "MEAN_ANOMALY": 58.6816, "EPHEMERIS_TYPE": 0, "CLASSIFICATION_TYPE": "U", "NORAD_CAT_ID": 29869, "ELEMENT_SET_NO": 999, "REV_AT_EPOCH": 99022, "BSTAR": 0.00044418167, "MEAN_MOTION_DOT": 1.324e-05, "MEAN_MOTION_DDOT": 0}, "tle": {"line1": "1 29869U 99025FP  25360.77704294  .00001324  00000+0  44418-3 0  9998", "line2": "2 29869  98.8748 291.5044 0086849 329.7433  58.6816 14.36920086990226"}}, "geometry": {"type": "Point", "coordinates": [144.97432709932087, 73.97351199337072]}}, {"type": "Feature", "properties": {"norad_id": 29870, "name": "FENGYUN 1C DEB", "group": "fengyun-1c-debris", "lat": 74.1242579356047, "lon": -59.79377532229428, "alt_km": 761.8875631621922, "timestamp": "2025-12-27T06:41:31.198398+00:00", "meta": {"OBJECT_NAME": "FENGYUN 1C DEB", "OBJECT_ID": "1999-025FQ", "EPOCH": "2025-12-26T22:01:00.280704", "MEAN_MOTION": 14.28984655, "ECCENTRICITY": 0.01206903, "INCLINATION": 98.462, "RA_OF_ASC_NODE": 331.4192, "ARG_OF_PERICENTER": 150.6991, "MEAN_ANOMALY": 228.7103, "EPHEMERIS_TYPE": 0, "CLASSIFICATION_TYPE": "U", "NORAD_CAT_ID": 29870, "ELEMENT_SET_NO": 999, "REV_AT_EPOCH": 98796, "BSTAR": 6.297128e-05, "MEAN_MOTION_DOT": 1.3e-06, "MEAN_MOTION_DDOT": 0}, "tle": {"line1": "1 29870U 99025FQ  25360.91736436  .00000130  00000+0  62971-4 0  9998", "line2": "2 29870  98.4620 331.4192 0120690 150.6991 228.7103 14.28984655987963"}}, "geometry": {"type": "Point", "coordinates": [-59.79377532229428, 74.1242579356047]}}, {"type": "Feature", "properties": {"norad_id": 29871, "name": "FENGYUN 1C DEB", "group": "fengyun-1c-debris", "lat": 24.12882950271271, "lon": -48.896384969398454, "alt_km": 716.7507821372956, "timestamp": "2025-12-27T06:41:31.198423+00:00", "meta": {"OBJECT_NAME": "FENGYUN 1C DEB", "OBJECT_ID": "1999-025FR", "EPOCH": "2025-12-26T20:52:03.661248", "MEAN_MOTION": 14.42724352, "ECCENTRICITY": 0.0059068, "INCLINATION": 98.9747, "RA_OF_ASC_NODE": 314.7322, "ARG_OF_PERICENTER": 66.2872, "MEAN_ANOMALY": 353.8475, "EPHEMERIS_TYPE": 0, "CLASSIFICATION_TYPE": "U", "NORAD_CAT_ID": 29871, "ELEMENT_SET_NO": 999, "REV_AT_EPOCH": 98905, "BSTAR": 0.0010764899, "MEAN_MOTION_DOT": 3.612e-05, "MEAN_MOTION_DDOT": 0}, "tle": {"line1": "1 29871U 99025FR  25360.86948682  .00003612  00000+0  10765-2 0  9991", "line2": "2 29871  98.9747 314.7322 0059068  66.2872 353.8475 14.42724352989054"}}, "geometry": {"type": "Point", "coordinates": [-48.896384969398454, 24.12882950271271]}}, {"type": "Feature", "properties": {"norad_id": 29872, "name": "FENGYUN 1C DEB", "group": "fengyun-1c-debris", "lat": 9.692209759241907, "lon": 15.432703468216772, "alt_km": 789.2003338061086, "timestamp": "2025-12-27T06:41:31.198435+00:00", "meta": {"OBJECT_NAME": "FENGYUN 1C DEB", "OBJECT_ID": "1999-025FS", "EPOCH": "2025-12-26T23:58:16.944672", "MEAN_MOTION": 14.39020569, "ECCENTRICITY": 0.02349455, "INCLINATION": 98.345, "RA_OF_ASC_NODE": 16.5965, "ARG_OF_PERICENTER": 270.5581, "MEAN_ANOMALY": 86.8692, "EPHEMERIS_TYPE": 0, "CLASSIFICATION_TYPE": "U", "NORAD_CAT_ID": 29872, "ELEMENT_SET_NO": 999, "REV_AT_EPOCH": 98797, "BSTAR": 0.00061945409, "MEAN_MOTION_DOT": 2.588e-05, "MEAN_MOTION_DDOT": 0}, "tle": {"line1": "1 29872U 99025FS  25360.99880723  .00002588  00000+0  61945-3 0  9995", "line2": "2 29872  98.3450  16.5965 0234945 270.5581  86.8692 14.39020569987974"}}, "geometry": {"type": "Point", "coordinates": [15.432703468216772, 9.692209759241907]}}, {"type": "Feature", "properties": {"norad_id": 29873, "name": "FENGYUN 1C DEB", "group": "fengyun-1c-debris", "lat": 66.4226837328586, "lon": 64.18539476621517, "alt_km": 847.6504374295582, "timestamp": "2025-12-27T06:41:31.198445+00:00", "meta": {"OBJECT_NAME": "FENGYUN 1C DEB", "OBJECT_ID": "1999-025FT", "EPOCH": "2025-12-26T15:00:38.994048", "MEAN_MOTION": 13.98155494, "ECCENTRICITY": 0.0092482, "INCLINATION": 99.4416, "RA_OF_ASC_NODE": 221.1003, "ARG_OF_PERICENTER": 160.7225, "MEAN_ANOMALY": 264.7819, "EPHEMERIS_TYPE": 0, "CLASSIFICATION_TYPE": "U", "NORAD_CAT_ID": 29873, "ELEMENT_SET_NO": 999, "REV_AT_EPOCH": 96509, "BSTAR": 0.00045713, "MEAN_MOTION_DOT": 6.28e-06, "MEAN_MOTION_DDOT": 0}, "tle": {"line1": "1 29873U 99025FT  25360.62545132  .00000628  00000+0  45713-3 0  9996", "line2": "2 29873  99.4416 221.1003 0092482 160.7225 264.7819 13.98155494965096"}}, "geometry": {"type": "Point", "coordinates": [64.18539476621517, 66.4226837328586]}}, {"type": "Feature", "properties": {"norad_id": 29874, "name": "FENGYUN 1C DEB", "group": "fengyun-1c-debris", "lat": 41.36611201082592, "lon": 85.05947783139418, "alt_km": 865.0387572413156, "timestamp": "2025-12-27T06:41:31.198456+00:00", "meta": {"OBJECT_NAME": "FENGYUN 1C DEB", "OBJECT_ID": "1999-025FU", "EPOCH": "2025-12-26T23:22:43.650048", "MEAN_MOTION": 14.29036576, "ECCENTRICITY": 0.0103784, "INCLINATION": 98.3768, "RA_OF_ASC_NODE": 257.3115, "ARG_OF_PERICENTER": 309.5784, "MEAN_ANOMALY": 61.8911, "EPHEMERIS_TYPE": 0, "CLASSIFICATION_TYPE": "U", "NORAD_CAT_ID": 29874, "ELEMENT_SET_NO": 999, "REV_AT_EPOCH": 97051, "BSTAR": 0.0037825294, "MEAN_MOTION_DOT": 0.00010118, "MEAN_MOTION_DDOT": 0}, "tle": {"line1": "1 29874U 99025FU  25360.97411632  .00010118  00000+0  37825-2 0  9991", "line2": "2 29874  98.3768 257.3115 0103784 309.5784  61.8911 14.29036576970517"}}, "geometry": {"type": "Point", "coordinates": [85.05947783139418, 41.36611201082592]}}, {"type": "Feature", "properties": {"norad_id": 29875, "name": "FENGYUN 1C DEB", "group": "fengyun-1c-debris", "lat": 46.065982242913066, "lon": -119.08877278659298, "alt_km": 826.7953609815049, "timestamp": "2025-12-27T06:41:31.198466+00:00", "meta": {"OBJECT_NAME": "FENGYUN 1C DEB", "OBJECT_ID": "1999-025FV", "EPOCH": "2025-12-26T09:55:49.293408", "MEAN_MOTION": 14.24880457, "ECCENTRICITY": 0.0082563, "INCLINATION": 98.4032, "RA_OF_ASC_NODE": 51.2576, "ARG_OF_PERICENTER": 23.6041, "MEAN_ANOMALY": 353.8327, "EPHEMERIS_TYPE": 0, "CLASSIFICATION_TYPE": "U", "NORAD_CAT_ID": 29875, "ELEMENT_SET_NO": 999, "REV_AT_EPOCH": 98517, "BSTAR": 2.6355e-05, "MEAN_MOTION_DOT": 2.2e-07, "MEAN_MOTION_DDOT": 0}, "tle": {"line1": "1 29875U 99025FV  25360.41376497  .00000022  00000+0  26355-4 0  9991", "line2": "2 29875  98.4032  51.2576 0082563  23.6041 353.8327 14.24880457985179"}}, "geometry": {"type": "Point", "coordinates": [-119.08877278659298, 46.065982242913066]}}, {"type": "Feature", "properties": {"norad_id": 29876, "name": "FENGYUN 1C DEB", "group": "fengyun-1c-debris", "lat": 31.467846644274818, "lon": -123.84138280137958, "alt_km": 865.9315944110167, "timestamp": "2025-12-27T06:41:31.198476+00:00", "meta": {"OBJECT_NAME": "FENGYUN 1C DEB", "OBJECT_ID": "1999-025FW", "EPOCH": "2025-12-26T15:22:53.027328", "MEAN_MOTION": 14.20306192, "ECCENTRICITY": 0.0060717, "INCLINATION": 98.3314, "RA_OF_ASC_NODE": 50.4121, "ARG_OF_PERICENTER": 336.7483, "MEAN_ANOMALY": 151.2277, "EPHEMERIS_TYPE": 0, "CLASSIFICATION_TYPE": "U", "NORAD_CAT_ID": 29876, "ELEMENT_SET_NO": 999, "REV_AT_EPOCH": 98114, "BSTAR": 0.00014776, "MEAN_MOTION_DOT": 2.81e-06, "MEAN_MOTION_DDOT": 0}, "tle": {"line1": "1 29876U 99025FW  25360.64089152  .00000281  00000+0  14776-3 0  9996", "line2": "2 29876  98.3314  50.4121 0060717 336.7483 151.2277 14.20306192981146"}}, "geometry": {"type": "Point", "coordinates": [-123.84138280137958, 31.467846644274818]}}, {"type": "Feature", "properties": {"norad_id": 29877, "name": "FENGYUN 1C DEB", "group": "fengyun-1c-debris", "lat": -63.55676188535713, "lon": 168.60940920307962, "alt_km": 804.2451010627747, "timestamp": "2025-12-27T06:41:31.198488+00:00", "meta": {"OBJECT_NAME": "FENGYUN 1C DEB", "OBJECT_ID": "1999-025FX", "EPOCH": "2025-12-26T23:04:57.327168", "MEAN_MOTION": 14.24821802, "ECCENTRICITY": 0.00465065, "INCLINATION": 98.5372, "RA_OF_ASC_NODE": 5.8804, "ARG_OF_PERICENTER": 176.5729, "MEAN_ANOMALY": 242.3719, "EPHEMERIS_TYPE": 0, "CLASSIFICATION_TYPE": "U", "NORAD_CAT_ID": 29877, "ELEMENT_SET_NO": 999, "REV_AT_EPOCH": 98176, "BSTAR": 0.00049041627, "MEAN_MOTION_DOT": 1.114e-05, "MEAN_MOTION_DDOT": 0}, "tle": {"line1": "1 29877U 99025FX  25360.96177462  .00001114  00000+0  49042-3 0  9994", "line2": "2 29877  98.5372   5.8804 0046506 176.5729 242.3719 14.24821802981763"}}, "geometry": {"type": "Point", "coordinates": [168.60940920307962, -63.55676188535713]}}]}